STARLINK-37321          
1 69198U 26114S   26161.23156680  .00218042  00000+0  10774-2 0  9991
2 69198  53.1586 236.9731 0001342  23.3513 336.7571 15.80936654  3676
STARLINK-37406          
1 69199U 26114T   26161.23081791  .00146540  00000+0  73182-3 0  9998
2 69199  53.1583 236.9674 0001675  47.9183 312.1982 15.80920950  3670
STARLINK-37761          
1 69200U 26114U   26161.23006612  .00129494  00000+0  64842-3 0  9992
2 69200  53.1582 236.9620 0001623  39.9184 320.1958 15.80919543  3676
STARLINK-37754          
1 69201U 26114V   26161.22912281  .00166920  00000+0  83154-3 0  9992
2 69201  53.1583 236.9562 0001109  33.7251 326.3842 15.80910851  3672
STARLINK-37649          
1 69202U 26114W   26161.22856681  .00154467  00000+0  77086-3 0  9994
2 69202  53.1584 236.9531 0001819  37.0894 323.0254 15.80910801  3674
STARLINK-37604          
1 69203U 26114X   26161.22781521  .00147456  00000+0  73699-3 0  9991
2 69203  53.1582 236.9476 0001647  38.0361 322.0778 15.80900189  3678
STARLINK-37669          
1 69204U 26114Y   26161.22706668  .00170010  00000+0  84663-3 0  9996
2 69204  53.1583 236.9423 0001421  45.6656 314.4483 15.80909080  3670
STARLINK-37691          
1 69205U 26114Z   26161.25003472 -.00045891  00000+0 -26161-3 0  9992
2 69205  53.1592 236.8505 0001402  94.3291  24.7179 15.78075783  3692
STARLINK-37671          
1 69206U 26114AA  26161.22556617  .00177833  00000+0  88430-3 0  9991
2 69206  53.1581 236.9319 0001691  48.9734 311.1435 15.80916671  3671
STARLINK-37647          
1 69207U 26114AB  26161.22631486  .00132307  00000+0  66279-3 0  9994
2 69207  53.1584 236.9376 0001397  46.2152 313.8986 15.80900837  3673
STARLINK-37562          
1 69208U 26114AC  26161.16085106 -.00149215  00000+0 -76871-3 0  9997
2 69208  53.1579 237.2382 0002204 161.2003 198.9102 15.80779363  3669
STARLINK-37682          
1 69209U 26114AD  26161.22331484  .00186009  00000+0  92368-3 0  9997
2 69209  53.1581 236.9163 0001419  38.9314 321.1811 15.80922471  3676
STARLINK-37402          
1 69210U 26114AE  26161.22256524  .00176913  00000+0  88002-3 0  9993
2 69210  53.1582 236.9118 0000931  49.5426 310.5678 15.80912580  3672
STARLINK-37613          
1 69211U 26115A   26161.25003472 -.02462103  00000+0 -33310-1 0  9993
2 69211  97.2840 178.2801 0001287  70.1793  38.4774 15.61261092  3574
STARLINK-37713          
1 69212U 26115B   26161.25003472 -.02596451  00000+0 -21597-1 0  9992
2 69212  97.2840 178.3255 0001674  90.7602 134.0149 15.73353191  3570
STARLINK-37716          
1 69213U 26115C   26161.27125436 -.00066636  00000+0 -35148-3 0  9994
2 69213  97.2830 178.3559 0001065  43.7529 316.3824 15.80711711  3598
STARLINK-37620          
1 69214U 26115D   26161.25003472 -.02505103  00000+0 -40151-1 0  9995
2 69214  97.2842 178.2581 0001329  84.4461 333.5966 15.56886203  3574
STARLINK-37700          
1 69215U 26115E   26161.25003472  .00014626  00000+0  27029-3 0  9998
2 69215  97.2845 178.1740 0001110  92.4681 132.9578 15.49167630  3573
STARLINK-37766          
1 69216U 26115F   26161.26823098  .00184739  00000+0  94157-3 0  9993
2 69216  97.2827 178.3599 0001047 110.0550 250.0831 15.80894017  3596
STARLINK-37763          
1 69217U 26115G   26161.25003472 -.02483006  00000+0 -17206-1 0  9990
2 69217  97.2841 178.3370 0001666 100.0387 151.9470 15.77932307  3571
STARLINK-37724          
1 69218U 26115H   26161.26676036  .00110827  00000+0  57070-3 0  9993
2 69218  97.2831 178.3615 0000925  80.0831 280.0542 15.80866775  3596
STARLINK-37758          
1 69219U 26115J   26161.26355247  .00212369  00000+0  10786-2 0  9998
2 69219  97.2824 178.3662 0001365  99.9181 260.2242 15.80898470  3591
STARLINK-37201          
1 69220U 26115K   26161.26478602  .00208523  00000+0  10591-2 0  9992
2 69220  97.2830 178.3648 0001273 104.5741 255.5669 15.80907780  3592
STARLINK-37728          
1 69221U 26115L   26161.26236746  .00222892  00000+0  11302-2 0  9990
2 69221  97.2828 178.3687 0001104  97.8037 262.3357 15.80906506  3593
STARLINK-37760          
1 69222U 26115M   26161.26511038  .00201692  00000+0  10258-2 0  9995
2 69222  97.2828 178.3646 0001186  99.1698 260.9705 15.80895626  3598
STARLINK-37759          
1 69223U 26115N   26161.13527436 -.00946825  00000+0 -58542-2 0  9995
2 69223  97.2828 178.2344 0001333 111.3057 248.8353 15.79476984  3575
STARLINK-37725          
1 69224U 26115P   26161.00890707  .00499280  00000+0  23938-2 0  9993
2 69224  97.2832 178.1008 0001224 220.6030 139.5147 15.81422523  3559
STARLINK-37770          
1 69225U 26115Q   26161.26280232  .01468479  00000+0  66078-2 0  9997
2 69225  97.2831 178.3671 0002727 252.7522 107.3448 15.81380483  3597
STARLINK-37736          
1 69226U 26115R   26161.26211061  .00098607  00000+0  50881-3 0  9999
2 69226  97.2826 178.3688 0001303  88.9250 271.2168 15.80855817  3593
STARLINK-37737          
1 69227U 26115S   26161.26011467  .00259674  00000+0  13105-2 0  9998
2 69227  97.2825 178.3710 0000820  78.8266 281.3095 15.80915256  3592
