OBJECT_NAME,OBJECT_ID,EPOCH,MEAN_MOTION,ECCENTRICITY,INCLINATION,RA_OF_ASC_NODE,ARG_OF_PERICENTER,MEAN_ANOMALY,EPHEMERIS_TYPE,CLASSIFICATION_TYPE,NORAD_CAT_ID,ELEMENT_SET_NO,REV_AT_EPOCH,BSTAR,MEAN_MOTION_DOT,MEAN_MOTION_DDOT
STARLINK-37321,2026-114S,2026-06-10T05:33:27.371520,15.80936654,.00013424,53.1586,236.9731,23.3513,336.7571,0,U,69198,999,367,.10774176E-2,.218042E-2,0
STARLINK-37406,2026-114T,2026-06-10T05:32:22.667424,15.80920950,.00016757,53.1583,236.9674,47.9183,312.1982,0,U,69199,999,367,.73181661E-3,.14654E-2,0
STARLINK-37761,2026-114U,2026-06-10T05:31:17.712768,15.80919543,.00016237,53.1582,236.9620,39.9184,320.1958,0,U,69200,999,367,.64842075E-3,.129494E-2,0
STARLINK-37754,2026-114V,2026-06-10T05:29:56.210784,15.80910851,.00011093,53.1583,236.9562,33.7251,326.3842,0,U,69201,999,367,.83153777E-3,.16692E-2,0
STARLINK-37649,2026-114W,2026-06-10T05:29:08.172384,15.80910801,.00018196,53.1584,236.9531,37.0894,323.0254,0,U,69202,999,367,.77086118E-3,.154467E-2,0
STARLINK-37604,2026-114X,2026-06-10T05:28:03.234144,15.80900189,.00016476,53.1582,236.9476,38.0361,322.0778,0,U,69203,999,367,.73699331E-3,.147456E-2,0
STARLINK-37669,2026-114Y,2026-06-10T05:26:58.561152,15.80909080,.00014214,53.1583,236.9423,45.6656,314.4483,0,U,69204,999,367,.84662669E-3,.17001E-2,0
STARLINK-37691,2026-114Z,2026-06-10T06:00:02.999808,15.78075783,.00014027,53.1592,236.8505,94.3291,24.7179,0,U,69205,999,369,-.26160944E-3,-.45891E-3,0
STARLINK-37671,2026-114AA,2026-06-10T05:24:48.917088,15.80916671,.00016915,53.1581,236.9319,48.9734,311.1435,0,U,69206,999,367,.88429905E-3,.177833E-2,0
STARLINK-37647,2026-114AB,2026-06-10T05:25:53.603904,15.80900837,.00013972,53.1584,236.9376,46.2152,313.8986,0,U,69207,999,367,.66279173E-3,.132307E-2,0
STARLINK-37562,2026-114AC,2026-06-10T03:51:37.531584,15.80779363,.00022049,53.1579,237.2382,161.2003,198.9102,0,U,69208,999,366,-.76870699E-3,-.149215E-2,0
STARLINK-37682,2026-114AD,2026-06-10T05:21:34.402176,15.80922471,.00014196,53.1581,236.9163,38.9314,321.1811,0,U,69209,999,367,.92368185E-3,.186009E-2,0
STARLINK-37402,2026-114AE,2026-06-10T05:20:29.636736,15.80912580,.00009318,53.1582,236.9118,49.5426,310.5678,0,U,69210,999,367,.88001504E-3,.176913E-2,0
STARLINK-37613,2026-115A,2026-06-10T06:00:02.999808,15.61261092,.00012872,97.2840,178.2801,70.1793,38.4774,0,U,69211,999,357,-.33310245E-1,-.2462103E-1,0
STARLINK-37713,2026-115B,2026-06-10T06:00:02.999808,15.73353191,.00016741,97.2840,178.3255,90.7602,134.0149,0,U,69212,999,357,-.21596798E-1,-.2596451E-1,0
STARLINK-37716,2026-115C,2026-06-10T06:30:36.376704,15.80711711,.00010653,97.2830,178.3559,43.7529,316.3824,0,U,69213,999,359,-.35148031E-3,-.66636E-3,0
STARLINK-37620,2026-115D,2026-06-10T06:00:02.999808,15.56886203,.00013298,97.2842,178.2581,84.4461,333.5966,0,U,69214,999,357,-.40151499E-1,-.2505103E-1,0
STARLINK-37700,2026-115E,2026-06-10T06:00:02.999808,15.49167630,.00011103,97.2845,178.1740,92.4681,132.9578,0,U,69215,999,357,.27028914E-3,.14626E-3,0
STARLINK-37766,2026-115F,2026-06-10T06:26:15.156672,15.80894017,.00010478,97.2827,178.3599,110.0550,250.0831,0,U,69216,999,359,.9415693E-3,.184739E-2,0
STARLINK-37763,2026-115G,2026-06-10T06:00:02.999808,15.77932307,.00016663,97.2841,178.3370,100.0387,151.9470,0,U,69217,999,357,-.17206401E-1,-.2483006E-1,0
STARLINK-37724,2026-115H,2026-06-10T06:24:08.095104,15.80866775,.00009256,97.2831,178.3615,80.0831,280.0542,0,U,69218,999,359,.57069771E-3,.110827E-2,0
STARLINK-37758,2026-115J,2026-06-10T06:19:30.933408,15.80898470,.00013654,97.2824,178.3662,99.9181,260.2242,0,U,69219,999,359,.1078615E-2,.212369E-2,0
STARLINK-37201,2026-115K,2026-06-10T06:21:17.512128,15.80907780,.00012734,97.2830,178.3648,104.5741,255.5669,0,U,69220,999,359,.10591151E-2,.208523E-2,0
STARLINK-37728,2026-115L,2026-06-10T06:17:48.548544,15.80906506,.00011043,97.2828,178.3687,97.8037,262.3357,0,U,69221,999,359,.11302354E-2,.222892E-2,0
STARLINK-37760,2026-115M,2026-06-10T06:21:45.536832,15.80895626,.00011861,97.2828,178.3646,99.1698,260.9705,0,U,69222,999,359,.10258226E-2,.201692E-2,0
STARLINK-37759,2026-115N,2026-06-10T03:14:47.704704,15.79476984,.00013336,97.2828,178.2344,111.3057,248.8353,0,U,69223,999,357,-.58542383E-2,-.946825E-2,0
STARLINK-37725,2026-115P,2026-06-10T00:12:49.570848,15.81422523,.00012249,97.2832,178.1008,220.6030,139.5147,0,U,69224,999,355,.23938265E-2,.49928E-2,0
STARLINK-37770,2026-115Q,2026-06-10T06:18:26.120448,15.81380483,.00027279,97.2831,178.3671,252.7522,107.3448,0,U,69225,999,359,.66077561E-2,.1468479E-1,0
STARLINK-37736,2026-115R,2026-06-10T06:17:26.356704,15.80855817,.00013038,97.2826,178.3688,88.9250,271.2168,0,U,69226,999,359,.50881276E-3,.98607E-3,0
STARLINK-37737,2026-115S,2026-06-10T06:14:33.907488,15.80915256,.00008204,97.2825,178.3710,78.8266,281.3095,0,U,69227,999,359,.13105013E-2,.259674E-2,0
